{"type": "FeatureCollection", "features": [ {"type": "Feature", "properties": {"norad_id": 35442, "name": "COSMOS 2251 DEB", "group": "cosmos-2251-debris", "lat": -52.17077924265156, "lon": -52.26719279924926, "alt_km": 624.3231639753558, "timestamp": "2025-12-09T05:43:21.122636+00:00", "meta": {"OBJECT_NAME": "COSMOS 2251 DEB", "OBJECT_ID": "1993-036AKL", "EPOCH": "2025-12-07T15:27:31.650048", "MEAN_MOTION": 14.84119587, "ECCENTRICITY": 0.00041145, "INCLINATION": 74.0265, "RA_OF_ASC_NODE": 109.2474, "ARG_OF_PERICENTER": 111.4342, "MEAN_ANOMALY": 248.7276, "EPHEMERIS_TYPE": 0, "CLASSIFICATION_TYPE": "U", "NORAD_CAT_ID": 35442, "ELEMENT_SET_NO": 999, "REV_AT_EPOCH": 87277, "BSTAR": 0.0046413266, "MEAN_MOTION_DOT": 0.00038955, "MEAN_MOTION_DDOT": 0}, "tle": {"line1": "1 35442U 93036AKL 25341.64411632  .00038955  00000+0  46413-2 0  9990", "line2": "2 35442  74.0265 109.2474 0004114 111.4342 248.7276 14.84119587872772"}}, "geometry": {"type": "Point", "coordinates": [-52.26719279924926, -52.17077924265156]}}, {"type": "Feature", "properties": {"norad_id": 35443, "name": "COSMOS 2251 DEB", "group": "cosmos-2251-debris", "lat": 60.37709673317768, "lon": 128.35980039494515, "alt_km": 521.6641563975754, "timestamp": "2025-12-09T05:43:21.122647+00:00", "meta": {"OBJECT_NAME": "COSMOS 2251 DEB", "OBJECT_ID": "1993-036AKM", "EPOCH": "2025-12-08T06:44:44.274336", "MEAN_MOTION": 14.96147372, "ECCENTRICITY": 0.00733753, "INCLINATION": 73.988, "RA_OF_ASC_NODE": 340.6328, "ARG_OF_PERICENTER": 123.8306, "MEAN_ANOMALY": 236.9892, "EPHEMERIS_TYPE": 0, "CLASSIFICATION_TYPE": "U", "NORAD_CAT_ID": 35443, "ELEMENT_SET_NO": 999, "REV_AT_EPOCH": 86811, "BSTAR": 0.0035457848, "MEAN_MOTION_DOT": 0.00042371, "MEAN_MOTION_DDOT": 0}, "tle": {"line1": "1 35443U 93036AKM 25342.28106799  .00042371  00000+0  35458-2 0  9991", "line2": "2 35443  73.9880 340.6328 0073375 123.8306 236.9892 14.96147372868117"}}, "geometry": {"type": "Point", "coordinates": [128.35980039494515, 60.37709673317768]}}, {"type": "Feature", "properties": {"norad_id": 35445, "name": "COSMOS 2251 DEB", "group": "cosmos-2251-debris", "lat": -70.65837525835913, "lon": -178.69178885813074, "alt_km": 775.174041037043, "timestamp": "2025-12-09T05:43:21.122657+00:00", "meta": {"OBJECT_NAME": "COSMOS 2251 DEB", "OBJECT_ID": "1993-036AKP", "EPOCH": "2025-12-08T05:29:59.522496", "MEAN_MOTION": 14.58996884, "ECCENTRICITY": 0.01436419, "INCLINATION": 74.0379, "RA_OF_ASC_NODE": 308.6026, "ARG_OF_PERICENTER": 36.7325, "MEAN_ANOMALY": 324.3579, "EPHEMERIS_TYPE": 0, "CLASSIFICATION_TYPE": "U", "NORAD_CAT_ID": 35445, "ELEMENT_SET_NO": 999, "REV_AT_EPOCH": 87263, "BSTAR": 0.0025418237, "MEAN_MOTION_DOT": 0.00013775, "MEAN_MOTION_DDOT": 0}, "tle": {"line1": "1 35445U 93036AKP 25342.22916114  .00013775  00000+0  25418-2 0  9998", "line2": "2 35445  74.0379 308.6026 0143641  36.7325 324.3579 14.58996884872634"}}, "geometry": {"type": "Point", "coordinates": [-178.69178885813074, -70.65837525835913]}}, {"type": "Feature", "properties": {"norad_id": 35446, "name": "COSMOS 2251 DEB", "group": "cosmos-2251-debris", "lat": -8.11914477412414, "lon": -37.53401856190245, "alt_km": 716.1106521799393, "timestamp": "2025-12-09T05:43:21.122669+00:00", "meta": {"OBJECT_NAME": "COSMOS 2251 DEB", "OBJECT_ID": "1993-036AKQ", "EPOCH": "2025-12-05T17:34:52.262112", "MEAN_MOTION": 14.54618421, "ECCENTRICITY": 0.00744002, "INCLINATION": 74.0466, "RA_OF_ASC_NODE": 331.4309, "ARG_OF_PERICENTER": 91.6694, "MEAN_ANOMALY": 269.2992, "EPHEMERIS_TYPE": 0, "CLASSIFICATION_TYPE": "U", "NORAD_CAT_ID": 35446, "ELEMENT_SET_NO": 999, "REV_AT_EPOCH": 87906, "BSTAR": 0.00018901942, "MEAN_MOTION_DOT": 8.08e-06, "MEAN_MOTION_DDOT": 0}, "tle": {"line1": "1 35446U 93036AKQ 25339.73254933  .00000808  00000+0  18902-3 0  9999", "line2": "2 35446  74.0466 331.4309 0074400  91.6694 269.2992 14.54618421879069"}}, "geometry": {"type": "Point", "coordinates": [-37.53401856190245, -8.11914477412414]}}, {"type": "Feature", "properties": {"norad_id": 35448, "name": "COSMOS 2251 DEB", "group": "cosmos-2251-debris", "lat": -34.48460734526453, "lon": -72.37658739427553, "alt_km": 713.8473374264149, "timestamp": "2025-12-09T05:43:21.122679+00:00", "meta": {"OBJECT_NAME": "COSMOS 2251 DEB", "OBJECT_ID": "1993-036AKS", "EPOCH": "2025-12-08T08:55:07.122144", "MEAN_MOTION": 14.54200662, "ECCENTRICITY": 0.00113673, "INCLINATION": 73.9041, "RA_OF_ASC_NODE": 97.835, "ARG_OF_PERICENTER": 278.6106, "MEAN_ANOMALY": 81.3768, "EPHEMERIS_TYPE": 0, "CLASSIFICATION_TYPE": "U", "NORAD_CAT_ID": 35448, "ELEMENT_SET_NO": 999, "REV_AT_EPOCH": 87271, "BSTAR": 0.0016168374, "MEAN_MOTION_DOT": 6.829e-05, "MEAN_MOTION_DDOT": 0}, "tle": {"line1": "1 35448U 93036AKS 25342.37161021  .00006829  00000+0  16168-2 0  9990", "line2": "2 35448  73.9041  97.8350 0011367 278.6106  81.3768 14.54200662872718"}}, "geometry": {"type": "Point", "coordinates": [-72.37658739427553, -34.48460734526453]}}, {"type": "Feature", "properties": {"norad_id": 35451, "name": "COSMOS 2251 DEB", "group": "cosmos-2251-debris", "lat": -59.440369361497154, "lon": 81.00832210710871, "alt_km": 453.9840808900044, "timestamp": "2025-12-09T05:43:21.122690+00:00", "meta": {"OBJECT_NAME": "COSMOS 2251 DEB", "OBJECT_ID": "1993-036AKV", "EPOCH": "2025-12-08T19:02:53.512224", "MEAN_MOTION": 15.34973984, "ECCENTRICITY": 0.0040466, "INCLINATION": 73.9316, "RA_OF_ASC_NODE": 111.1885, "ARG_OF_PERICENTER": 358.188, "MEAN_ANOMALY": 1.9171, "EPHEMERIS_TYPE": 0, "CLASSIFICATION_TYPE": "U", "NORAD_CAT_ID": 35451, "ELEMENT_SET_NO": 999, "REV_AT_EPOCH": 67345, "BSTAR": 0.0018915, "MEAN_MOTION_DOT": 0.00066455, "MEAN_MOTION_DDOT": 0}, "tle": {"line1": "1 35451U 93036AKV 25342.79367491  .00066455  00000+0  18915-2 0  9992", "line2": "2 35451  73.9316 111.1885 0040466 358.1880   1.9171 15.34973984673454"}}, "geometry": {"type": "Point", "coordinates": [81.00832210710871, -59.440369361497154]}}, {"type": "Feature", "properties": {"norad_id": 35453, "name": "COSMOS 2251 DEB", "group": "cosmos-2251-debris", "lat": 61.85833627568536, "lon": 174.42206545214, "alt_km": 726.3804056546232, "timestamp": "2025-12-09T05:43:21.122700+00:00", "meta": {"OBJECT_NAME": "COSMOS 2251 DEB", "OBJECT_ID": "1993-036AKX", "EPOCH": "2025-12-02T12:53:58.122528", "MEAN_MOTION": 14.3790654, "ECCENTRICITY": 0.00680216, "INCLINATION": 74.0102, "RA_OF_ASC_NODE": 39.1945, "ARG_OF_PERICENTER": 175.6131, "MEAN_ANOMALY": 184.5634, "EPHEMERIS_TYPE": 0, "CLASSIFICATION_TYPE": "U", "NORAD_CAT_ID": 35453, "ELEMENT_SET_NO": 999, "REV_AT_EPOCH": 86072, "BSTAR": 0.00098540606, "MEAN_MOTION_DOT": 3.03e-05, "MEAN_MOTION_DDOT": 0}, "tle": {"line1": "1 35453U 93036AKX 25336.53747827  .00003030  00000+0  98541-3 0  9998", "line2": "2 35453  74.0102  39.1945 0068021 175.6131 184.5634 14.37906540860721"}}, "geometry": {"type": "Point", "coordinates": [174.42206545214, 61.85833627568536]}}, {"type": "Feature", "properties": {"norad_id": 35455, "name": "COSMOS 2251 DEB", "group": "cosmos-2251-debris", "lat": -4.239624981334847, "lon": 122.59325404439068, "alt_km": 783.3381860491791, "timestamp": "2025-12-09T05:43:21.122711+00:00", "meta": {"OBJECT_NAME": "COSMOS 2251 DEB", "OBJECT_ID": "1993-036AKZ", "EPOCH": "2025-12-08T04:01:59.008512", "MEAN_MOTION": 14.49316201, "ECCENTRICITY": 0.00988658, "INCLINATION": 74.0291, "RA_OF_ASC_NODE": 303.385, "ARG_OF_PERICENTER": 48.0175, "MEAN_ANOMALY": 312.9353, "EPHEMERIS_TYPE": 0, "CLASSIFICATION_TYPE": "U", "NORAD_CAT_ID": 35455, "ELEMENT_SET_NO": 999, "REV_AT_EPOCH": 86477, "BSTAR": 0.0020479607, "MEAN_MOTION_DOT": 8.302e-05, "MEAN_MOTION_DDOT": 0}, "tle": {"line1": "1 35455U 93036AKZ 25342.16804408  .00008302  00000+0  20480-2 0  9998", "line2": "2 35455  74.0291 303.3850 0098865  48.0175 312.9353 14.49316201864779"}}, "geometry": {"type": "Point", "coordinates": [122.59325404439068, -4.239624981334847]}}, {"type": "Feature", "properties": {"norad_id": 35456, "name": "COSMOS 2251 DEB", "group": "cosmos-2251-debris", "lat": -62.92480543230869, "lon": 90.01829490680704, "alt_km": 636.0737158199154, "timestamp": "2025-12-09T05:43:21.122722+00:00", "meta": {"OBJECT_NAME": "COSMOS 2251 DEB", "OBJECT_ID": "1993-036ALA", "EPOCH": "2025-12-07T16:26:35.520576", "MEAN_MOTION": 14.69275987, "ECCENTRICITY": 0.0065481, "INCLINATION": 73.9502, "RA_OF_ASC_NODE": 127.3161, "ARG_OF_PERICENTER": 338.308, "MEAN_ANOMALY": 21.5318, "EPHEMERIS_TYPE": 0, "CLASSIFICATION_TYPE": "U", "NORAD_CAT_ID": 35456, "ELEMENT_SET_NO": 999, "REV_AT_EPOCH": 65801, "BSTAR": 0.0028319025, "MEAN_MOTION_DOT": 0.00017275, "MEAN_MOTION_DDOT": 0}, "tle": {"line1": "1 35456U 93036ALA 25341.68513334  .00017275  00000+0  28319-2 0  9998", "line2": "2 35456  73.9502 127.3161 0065481 338.3080  21.5318 14.69275987658019"}}, "geometry": {"type": "Point", "coordinates": [90.01829490680704, -62.92480543230869]}}, {"type": "Feature", "properties": {"norad_id": 35459, "name": "COSMOS 2251 DEB", "group": "cosmos-2251-debris", "lat": -3.5775349759617256, "lon": -167.24291435695784, "alt_km": 779.8649277571249, "timestamp": "2025-12-09T05:43:21.122732+00:00", "meta": {"OBJECT_NAME": "COSMOS 2251 DEB", "OBJECT_ID": "1993-036ALD", "EPOCH": "2025-12-05T21:33:57.544416", "MEAN_MOTION": 14.37446258, "ECCENTRICITY": 0.00165225, "INCLINATION": 73.8704, "RA_OF_ASC_NODE": 199.9991, "ARG_OF_PERICENTER": 150.1634, "MEAN_ANOMALY": 210.0464, "EPHEMERIS_TYPE": 0, "CLASSIFICATION_TYPE": "U", "NORAD_CAT_ID": 35459, "ELEMENT_SET_NO": 999, "REV_AT_EPOCH": 58263, "BSTAR": 0.00040904083, "MEAN_MOTION_DOT": 1.198e-05, "MEAN_MOTION_DDOT": 0}, "tle": {"line1": "1 35459U 93036ALD 25339.89858269  .00001198  00000+0  40904-3 0  9992", "line2": "2 35459  73.8704 199.9991 0016522 150.1634 210.0464 14.37446258582635"}}, "geometry": {"type": "Point", "coordinates": [-167.24291435695784, -3.5775349759617256]}}]}